{
    "links": {
        "self": "http://www.neowsapp.com/rest/v1/neo/3781975?api_key=iIulBulltgU6a56xZRHN4H3l9WmuAYTsLGpBGhQ2"
    },
    "id": "3781975",
    "neo_reference_id": "3781975",
    "name": "(2017 SW19)",
    "designation": "2017 SW19",
    "nasa_jpl_url": "http://ssd.jpl.nasa.gov/sbdb.cgi?sstr=3781975",
    "absolute_magnitude_h": 26.9,
    "estimated_diameter": {
        "kilometers": {
            "estimated_diameter_min": 0.0110803882,
            "estimated_diameter_max": 0.0247765013
        },
        "meters": {
            "estimated_diameter_min": 11.0803882126,
            "estimated_diameter_max": 24.7765012606
        },
        "miles": {
            "estimated_diameter_min": 0.0068850319,
            "estimated_diameter_max": 0.0153953994
        },
        "feet": {
            "estimated_diameter_min": 36.3529808636,
            "estimated_diameter_max": 81.2877363957
        }
    },
    "is_potentially_hazardous_asteroid": false,
    "close_approach_data": [
        {
            "close_approach_date": "2017-05-23",
            "close_approach_date_full": "2017-May-23 10:35",
            "epoch_date_close_approach": 1495535700000,
            "relative_velocity": {
                "kilometers_per_second": "7.13432825",
                "kilometers_per_hour": "25683.5817000653",
                "miles_per_hour": "15958.7788624656"
            },
            "miss_distance": {
                "astronomical": "0.3698465199",
                "lunar": "143.8702962411",
                "kilometers": "55328251.603952613",
                "miles": "34379381.3535995394"
            },
            "orbiting_body": "Earth"
        },
        {
            "close_approach_date": "2017-09-25",
            "close_approach_date_full": "2017-Sep-25 15:52",
            "epoch_date_close_approach": 1506354720000,
            "relative_velocity": {
                "kilometers_per_second": "10.7331851448",
                "kilometers_per_hour": "38639.4665211727",
                "miles_per_hour": "24009.0618503365"
            },
            "miss_distance": {
                "astronomical": "0.0273870876",
                "lunar": "10.6535770764",
                "kilometers": "4097049.970463412",
                "miles": "2545788.8018506056"
            },
            "orbiting_body": "Earth"
        },
        {
            "close_approach_date": "2190-10-17",
            "close_approach_date_full": "2190-Oct-17 20:58",
            "epoch_date_close_approach": 6967630680000,
            "relative_velocity": {
                "kilometers_per_second": "18.4985335402",
                "kilometers_per_hour": "66594.7207445454",
                "miles_per_hour": "41379.3696759649"
            },
            "miss_distance": {
                "astronomical": "0.3836969484",
                "lunar": "149.2581129276",
                "kilometers": "57400246.206139908",
                "miles": "35666859.0982624104"
            },
            "orbiting_body": "Earth"
        }
    ],
    "orbital_data": {
        "orbit_id": "1",
        "orbit_determination_date": "2017-09-30 11:12:08",
        "first_observation_date": "2017-09-27",
        "last_observation_date": "2017-09-30",
        "data_arc_in_days": 3,
        "observations_used": 27,
        "orbit_uncertainty": "8",
        "minimum_orbit_intersection": ".0270371",
        "jupiter_tisserand_invariant": "4.807",
        "epoch_osculation": "2458024.5",
        "eccentricity": ".2637868754402352",
        "semi_major_axis": "1.344198538267586",
        "inclination": "17.25385097923782",
        "ascending_node_longitude": "184.3779693149808",
        "orbital_period": "569.2375687241263",
        "perihelion_distance": ".9896166058866478",
        "perihelion_argument": "143.3291751437163",
        "aphelion_distance": "1.698780470648524",
        "perihelion_time": "2457990.721796141249",
        "mean_anomaly": "21.36217645719659",
        "mean_motion": ".6324248780819127",
        "equinox": "J2000",
        "orbit_class": {
            "orbit_class_type": "APO",
            "orbit_class_description": "Near-Earth asteroid orbits which cross the Earth’s orbit similar to that of 1862 Apollo",
            "orbit_class_range": "a (semi-major axis) > 1.0 AU; q (perihelion) < 1.017 AU"
        }
    },
    "is_sentry_object": false
}